STARLINK-37319          
1 68706U 26081H   26113.71159907 -.00766682  00000+0 -36822-2 0  9995
2 68706  53.1600 195.2345 0000764  17.2118 342.8932 15.83852969  1491
STARLINK-37112          
1 68707U 26081J   26113.71305499 -.00651415  00000+0 -30999-2 0  9991
2 68707  53.1599 195.2437 0000858  17.1786 342.9267 15.83767033  1494
STARLINK-37340          
1 68708U 26081K   26113.58602730 -.00727010  00000+0 -34238-2 0  9990
2 68708  53.1598 195.8754 0001390  50.6317 309.4830 15.84161496  1470
STARLINK-37303          
1 68709U 26081L   26113.52165252 -.00737452  00000+0 -33667-2 0  9994
2 68709  53.1598 196.1833 0002503 356.5258   3.5749 15.84820410  1460
STARLINK-36859          
1 68710U 26081M   26113.52101557 -.00657054  00000+0 -29355-2 0  9992
2 68710  53.1601 196.1782 0000145  50.1930 309.9107 15.85095175  1468
STARLINK-37320          
1 68711U 26081N   26113.70963669 -.00745406  00000+0 -34699-2 0  9999
2 68711  53.1601 195.2217 0002706  38.9039 321.2179 15.84434713  1494
STARLINK-37318          
1 68712U 26081P   26113.58285303 -.00724257  00000+0 -32421-2 0  9990
2 68712  53.1598 195.8542 0001119  49.3573 310.7549 15.85207139  1476
STARLINK-37305          
1 68713U 26081Q   26113.70836147 -.00467223  00000+0 -20478-2 0  9999
2 68713  53.1596 195.2121 0000861 347.1140  12.9863 15.85035004  1496
STARLINK-37225          
1 68714U 26081R   26113.70773117 -.00744780  00000+0 -33643-2 0  9991
2 68714  53.1605 195.2077 0002220  42.6323 317.4873 15.85059436  1498
STARLINK-37322          
1 68715U 26081S   26113.64404288 -.00646383  00000+0 -28171-2 0  9995
2 68715  53.1596 195.5218 0000696  23.4530 336.6526 15.85576043  1485
STARLINK-36337          
1 68716U 26081T   26113.70650550 -.00403719  00000+0 -17053-2 0  9999
2 68716  53.1594 195.1998 0004010  22.7121 337.4081 15.85620919  1495
STARLINK-36685          
1 68717U 26081U   26113.51681741 -.00698407  00000+0 -29341-2 0  9998
2 68717  53.1600 196.1504 0000812  87.9510 272.1608 15.86446223  1461
STARLINK-36684          
1 68718U 26081V   26113.70528010 -.00769501  00000+0 -33568-2 0  9999
2 68718  53.1599 195.1911 0000750  54.5840 305.5255 15.85845812  1495
STARLINK-36686          
1 68719U 26081W   26113.57804772 -.00772333  00000+0 -32283-2 0  9997
2 68719  53.1593 195.8196 0001648  15.0647 345.0427 15.86713662  1472
STARLINK-36681          
1 68720U 26081X   26113.57864658 -.00762741  00000+0 -32148-2 0  9990
2 68720  53.1598 195.8242 0000997  56.4999 303.6122 15.86528464  1472
STARLINK-36680          
1 68721U 26081Y   26113.51446462 -.00461685  00000+0 -18092-2 0  9999
2 68721  53.1600 196.1343 0000530 221.3436 138.7550 15.87309485  1467
